OBJECT_NAME,OBJECT_ID,EPOCH,MEAN_MOTION,ECCENTRICITY,INCLINATION,RA_OF_ASC_NODE,ARG_OF_PERICENTER,MEAN_ANOMALY,EPHEMERIS_TYPE,CLASSIFICATION_TYPE,NORAD_CAT_ID,ELEMENT_SET_NO,REV_AT_EPOCH,BSTAR,MEAN_MOTION_DOT,MEAN_MOTION_DDOT
STARLINK-37108,2026-053M,2026-07-14T15:21:58.297248,15.33468356,.00020635,97.2852,70.3770,84.2826,275.8652,0,U,68218,999,1967,.36516216E-3,.11741E-3,0
STARLINK-37106,2026-053N,2026-07-14T15:18:03.047328,15.33432626,.00017844,97.2854,70.3788,88.2846,271.8601,0,U,68219,999,1967,.12724434E-3,.4033E-4,0
STARLINK-37030,2026-053P,2026-07-14T15:10:13.203264,15.33442438,.00024696,97.2855,70.3851,100.1964,259.9558,0,U,68220,999,1967,.24224277E-3,.7753E-4,0
STARLINK-37012,2026-053Q,2026-07-14T15:14:07.999584,15.33442476,.00017685,97.2854,70.3839,98.6827,261.4616,0,U,68221,999,1967,.21812926E-3,.6973E-4,0
STARLINK-37110,2026-053R,2026-07-14T15:06:19.049760,15.33407670,.00014653,97.2862,70.3914,91.3245,268.8165,0,U,68222,999,1967,-.18754409E-3,-.6118E-4,0
STARLINK-37025,2026-053S,2026-07-14T15:02:23.348832,15.33440583,.00020688,97.2846,70.3939,89.4228,270.7252,0,U,68223,999,1967,.21385998E-3,.6835E-4,0
STARLINK-36960,2026-053U,2026-07-14T14:54:33.518592,15.33443355,.00022304,97.2847,70.4028,96.7204,263.4293,0,U,68225,999,1965,.22810865E-3,.7296E-4,0
STARLINK-37038,2026-053V,2026-07-14T14:46:43.596768,15.33443644,.00020277,97.2852,70.4094,102.9014,257.2455,0,U,68226,999,1965,.2250589E-3,.7197E-4,0
STARLINK-37083,2026-053W,2026-07-14T14:50:38.530464,15.33439211,.00019193,97.2854,70.4063,95.9333,264.2129,0,U,68227,999,1964,.21800991E-3,.6968E-4,0
STARLINK-37050,2026-053X,2026-07-14T14:42:48.637152,15.33443693,.00024946,97.2850,70.4119,107.1320,253.0196,0,U,68228,999,1965,.29722678E-3,.9533E-4,0
STARLINK-37081,2026-053Y,2026-07-14T13:59:07.480608,15.33421740,.00012696,97.2855,73.3481,102.0272,258.1113,0,U,68229,999,1986,.44642955E-3,.14354E-3,0
STARLINK-37100,2026-053Z,2026-07-14T14:38:53.788128,15.33439987,.00018662,97.2858,70.4181,96.4451,263.7004,0,U,68230,999,1967,.25439607E-3,.8146E-4,0
STARLINK-37104,2026-053AA,2026-07-14T14:34:58.072512,15.33429925,.00019983,97.2858,70.4215,101.9340,258.2127,0,U,68231,999,1967,-.48942611E-4,-.1654E-4,0
STARLINK-37027,2026-054A,2026-07-13T20:33:37.887264,15.34400090,.00013134,53.1583,62.6063,97.2982,262.8170,0,U,68232,999,1842,.32771012E-3,.10712E-3,0
STARLINK-37132,2026-054B,2026-07-14T08:36:44.208000,15.34404051,.00013094,53.1594,60.1030,82.7208,277.3943,0,U,68233,999,1850,.3473229E-3,.11378E-3,0
STARLINK-37101,2026-054C,2026-07-14T14:00:01.999872,15.35390267,.00015651,53.1591,59.5054,57.9053,247.9241,0,U,68234,999,582,.11052915E-2,.38359E-3,0
STARLINK-36963,2026-054D,2026-07-14T08:15:39.035520,15.34391922,.00013541,53.1583,60.6746,85.1967,274.9190,0,U,68235,999,1849,.33812715E-3,.11062E-3,0
STARLINK-37127,2026-054E,2026-07-14T08:07:10.800480,15.35405298,.00013053,53.1596,60.7121,82.7956,277.3195,0,U,68236,999,1849,.33892006E-3,.11461E-3,0
STARLINK-37095,2026-054F,2026-07-14T08:12:37.231776,15.34394361,.00013406,53.1584,60.6612,88.0513,272.0643,0,U,68237,999,1849,.31239767E-3,.10191E-3,0
STARLINK-37097,2026-054G,2026-07-13T21:58:20.214336,15.34404690,.00013869,53.1588,62.2734,128.9606,231.1520,0,U,68238,999,1843,.37307753E-3,.12251E-3,0
STARLINK-37096,2026-054H,2026-07-13T22:04:23.833056,15.34396382,.00009065,53.1580,62.2928,80.8715,279.2390,0,U,68239,999,1843,.33939394E-3,.11107E-3,0
STARLINK-37092,2026-054J,2026-07-14T07:51:48.151296,15.35409736,.00003317,53.1584,60.6350,353.9026,6.1973,0,U,68240,999,1849,.31674302E-3,.10688E-3,0
STARLINK-37094,2026-054K,2026-07-14T08:33:00.546048,15.34393290,.00013298,53.1589,67.9510,99.6134,260.5019,0,U,68241,999,1839,.46852757E-3,.15483E-3,0
STARLINK-36356,2026-054L,2026-07-14T14:26:56.223168,15.33188057,.00005199,53.1583,67.3558,40.1961,319.9079,0,U,68242,999,1842,.22445288E-1,.787518E-2,0
STARLINK-36345,2026-054M,2026-07-13T23:23:02.563008,15.34394660,.00013191,53.1588,61.9144,112.3095,247.8047,0,U,68243,999,1844,.27389311E-3,.8887E-4,0
STARLINK-36310,2026-054N,2026-07-13T20:39:04.779936,15.35407876,.00013979,53.1589,62.6861,99.8423,260.2738,0,U,68244,999,1842,.3243386E-3,.10952E-3,0
STARLINK-36247,2026-054P,2026-07-13T22:46:48.955872,15.34425218,.00013742,53.1598,62.5307,75.3414,284.7741,0,U,68245,999,1843,.95469875E-3,.32044E-3,0
STARLINK-37043,2026-054Q,2026-07-14T07:39:29.856384,15.35414135,.00009825,53.1583,60.5778,81.1348,278.9766,0,U,68246,999,1849,.34171351E-3,.11563E-3,0
STARLINK-37044,2026-054R,2026-07-14T08:39:46.276992,15.34399191,.0001292,53.1600,60.1247,70.7423,289.3719,0,U,68247,999,1850,.49762691E-3,.16473E-3,0
STARLINK-36997,2026-054S,2026-07-13T23:19:19.339104,15.34393251,.00013373,53.1593,69.8201,125.2520,234.8608,0,U,68248,999,1833,.38696495E-3,.12717E-3,0
STARLINK-37141,2026-054T,2026-07-14T08:30:40.803552,15.34390105,.00015555,53.1604,60.0856,90.7184,269.3996,0,U,68249,999,1850,.31503606E-3,.10279E-3,0
STARLINK-37087,2026-054U,2026-07-14T14:00:01.999872,15.37909982,.00010187,53.1587,59.3478,86.3310,294.5944,0,U,68250,999,593,-.79592691E-1,-.2688894E-1,0
STARLINK-36274,2026-054V,2026-07-14T14:00:01.999872,15.33537688,.00010989,53.1586,67.3767,94.2810,187.8012,0,U,68251,999,576,.14869482E-2,.48831E-3,0
STARLINK-37085,2026-054W,2026-07-14T07:57:28.604448,15.34419571,.00011475,53.1585,60.6417,91.1527,268.9607,0,U,68252,999,1849,.44731606E-3,.14776E-3,0
STARLINK-37086,2026-054X,2026-07-14T07:51:25.150752,15.34399736,.00011929,53.1597,60.6245,73.7063,286.4071,0,U,68253,999,1849,.41195951E-3,.13568E-3,0
STARLINK-37084,2026-054Y,2026-07-13T22:43:48.334944,15.34429737,.00013161,53.1586,62.5146,103.4534,256.6615,0,U,68254,999,1843,.7195371E-3,.24035E-3,0
STARLINK-37075,2026-054Z,2026-07-14T07:45:07.208640,15.35413471,.00012317,53.1592,60.5952,92.6614,267.4530,0,U,68255,999,1849,.46383736E-3,.1584E-3,0
STARLINK-36333,2026-054AA,2026-07-13T22:34:00.162624,15.34399379,.00010948,53.1591,70.3117,111.0371,249.0749,0,U,68256,999,1832,.40239715E-3,.13243E-3,0
STARLINK-36745,2026-054AB,2026-07-14T08:00:29.776608,15.34404221,.00014106,53.1583,60.6007,84.3111,275.8053,0,U,68257,999,1849,.17094403E-3,.5404E-4,0
STARLINK-36890,2026-054AC,2026-07-13T21:09:37.634976,15.30205264,.00009656,53.1577,70.6542,61.2178,298.8920,0,U,68258,999,1831,.4075275E-3,.11732E-3,0
STARLINK-36323,2026-054AD,2026-07-13T22:14:15.199584,15.35411082,.00011371,53.1587,62.3918,77.5883,282.5247,0,U,68259,999,1842,.37129066E-3,.12597E-3,0
STARLINK-37056,2026-054AE,2026-07-14T08:27:38.857248,15.34393060,.00013552,53.1603,60.0591,93.6979,266.4178,0,U,68260,999,1850,.31981477E-3,.10442E-3,0
STARLINK-37162,2026-055A,2026-07-13T22:30:25.666848,15.34389923,.00011087,53.1579,90.4813,65.2646,294.8472,0,U,68262,999,1929,.71004276E-3,.23682E-3,0
STARLINK-37156,2026-055B,2026-07-14T09:36:45.829152,15.34404934,.00013314,53.1577,89.8154,97.7052,262.4102,0,U,68263,999,1934,.93308858E-4,.2778E-4,0
STARLINK-37163,2026-055C,2026-07-13T23:39:58.933728,15.34393308,.00011588,53.1580,90.0698,118.5581,241.5538,0,U,68264,999,1930,.18970209E-3,.6037E-4,0
STARLINK-37133,2026-055D,2026-07-14T00:23:06.115200,15.34388939,.00010532,53.1582,91.6799,76.8167,283.2954,0,U,68265,999,1928,.12972614E-3,.4008E-4,0
STARLINK-37042,2026-055E,2026-07-14T09:39:07.108704,15.34397139,.00013316,53.1585,88.3999,98.8736,261.2417,0,U,68266,999,1936,.39782116E-3,.13087E-3,0
STARLINK-37103,2026-055F,2026-07-14T09:48:04.883040,15.34433553,.00016729,53.1586,87.7286,96.5950,263.5243,0,U,68267,999,1937,.67428937E-3,.22498E-3,0
STARLINK-36999,2026-055G,2026-07-14T09:54:08.049024,15.34396112,.00012417,53.1587,87.7222,88.8710,271.2435,0,U,68268,999,1937,.4316737E-3,.14234E-3,0
STARLINK-36962,2026-055H,2026-07-14T10:06:15.588000,15.34389600,.00013729,53.1589,87.7877,80.9107,279.2051,0,U,68269,999,1937,.45313895E-3,.14959E-3,0
STARLINK-37028,2026-055J,2026-07-14T00:04:55.433568,15.34391221,.00013021,53.1580,91.6015,95.9910,264.1241,0,U,68270,999,1928,.29806349E-3,.9705E-4,0
STARLINK-37029,2026-055K,2026-07-13T23:27:51.958944,15.34394312,.00010305,53.1589,90.0164,97.8520,262.2600,0,U,68271,999,1930,.71118792E-3,.23724E-3,0
STARLINK-36974,2026-055L,2026-07-13T23:55:57.983232,15.34382795,.00010901,53.1573,92.3015,80.2129,279.8997,0,U,68272,999,1927,.10037796E-2,.33672E-3,0
STARLINK-37019,2026-055M,2026-07-13T23:43:00.783264,15.34391531,.00011851,53.1581,90.0823,99.4131,260.7006,0,U,68273,999,1930,.59381627E-3,.19734E-3,0
STARLINK-37129,2026-055N,2026-07-14T09:33:03.451968,15.34393897,.0001316,53.1579,88.3709,102.1237,257.9913,0,U,68274,999,1936,.39157863E-3,.12874E-3,0
STARLINK-37123,2026-055P,2026-07-14T03:08:47.109984,15.34386308,.00010567,53.1580,89.5485,82.4959,277.6163,0,U,68275,999,1932,.70471562E-3,.23498E-3,0
STARLINK-37125,2026-055Q,2026-07-14T03:05:45.297600,15.34390412,.00010745,53.1581,89.5358,89.2545,270.8581,0,U,68276,999,1932,.64652339E-3,.21524E-3,0
STARLINK-36989,2026-055R,2026-07-13T23:46:02.413344,15.34393682,.00009572,53.1575,90.0760,81.0962,279.0149,0,U,68277,999,1930,.23166364E-3,.7457E-4,0
STARLINK-36982,2026-055S,2026-07-13T23:49:04.477152,15.34389546,.00008877,53.1582,90.1141,87.8189,272.2916,0,U,68278,999,1930,.19399166E-3,.6182E-4,0
STARLINK-36934,2026-055T,2026-07-13T23:55:07.893696,15.34370146,.00010027,53.1571,90.1390,89.8348,270.2770,0,U,68279,999,1930,.7807987E-3,.26071E-3,0
STARLINK-37070,2026-055U,2026-07-14T10:00:11.670336,15.34388857,.00012737,53.1584,87.7522,95.1609,264.9539,0,U,68280,999,1937,.30616031E-3,.9978E-4,0
STARLINK-37134,2026-055V,2026-07-14T09:54:58.161888,15.34393812,.00012894,53.1595,89.8868,92.8986,267.2164,0,U,68281,999,1934,.51783865E-3,.17156E-3,0
STARLINK-37160,2026-055W,2026-07-14T10:27:27.975744,15.34374775,.00011476,53.1587,87.8748,56.8008,303.3105,0,U,68282,999,1937,.6786352E-3,.22603E-3,0
STARLINK-37124,2026-055X,2026-07-14T10:04:03.501408,15.34392036,.00012312,53.1579,89.9230,99.4003,260.7139,0,U,68283,999,1934,.46285947E-3,.1529E-3,0
